OBJECT_NAME,OBJECT_ID,EPOCH,MEAN_MOTION,ECCENTRICITY,INCLINATION,RA_OF_ASC_NODE,ARG_OF_PERICENTER,MEAN_ANOMALY,EPHEMERIS_TYPE,CLASSIFICATION_TYPE,NORAD_CAT_ID,ELEMENT_SET_NO,REV_AT_EPOCH,BSTAR,MEAN_MOTION_DOT,MEAN_MOTION_DDOT
ONEWEB-0410,2022-012A,2026-07-13T11:47:18.583584,13.17650554,.00018989,87.9153,0.6265,52.2331,307.8972,0,U,51622,999,21716,.14730539E-4,.19E-6,0
ONEWEB-0411,2022-012B,2026-07-13T12:13:31.443744,13.10377606,.00022657,87.8823,31.0222,95.7670,264.3716,0,U,51623,999,21273,-.10177238E-2,-.343E-5,0
ONEWEB-0415,2022-012C,2026-07-13T12:08:37.388256,13.10377464,.00021313,87.8824,31.0216,87.5987,272.5385,0,U,51624,999,21273,-.13269953E-2,-.451E-5,0
ONEWEB-0416,2022-012D,2026-07-13T12:25:45.219072,13.10377597,.00021938,87.8815,31.0355,84.0088,276.1289,0,U,51625,999,21277,.2086421E-3,.86E-6,0
ONEWEB-0422,2022-012E,2026-07-13T12:01:53.079456,13.17651010,.00018246,87.9150,0.6250,113.0921,247.0403,0,U,51626,999,21727,-.46257469E-4,-.5E-7,0
ONEWEB-0423,2022-012F,2026-07-13T11:52:10.308000,13.17648283,.00017938,87.9142,0.6299,90.3896,269.7441,0,U,51627,999,21716,-.49260526E-4,-.6E-7,0
ONEWEB-0425,2022-012G,2026-07-13T14:30:23.307552,13.10376544,.0001823,87.8817,31.0018,74.7463,285.3865,0,U,51628,999,21278,.16271489E-2,.581E-5,0
ONEWEB-0428,2022-012H,2026-07-13T12:11:04.294176,13.10377426,.00018514,87.8816,31.0288,88.1230,272.0110,0,U,51629,999,21273,-.12410311E-2,-.421E-5,0
ONEWEB-0431,2022-012J,2026-07-13T13:16:50.103552,13.10369466,.00023179,87.8815,31.0123,98.0379,262.1012,0,U,51630,999,21279,.33306499E-3,.129E-5,0
ONEWEB-0434,2022-012K,2026-07-13T12:45:31.354560,13.10375109,.00016034,87.8821,31.0421,66.6763,293.4533,0,U,51631,999,21277,.175163E-2,.624E-5,0
ONEWEB-0435,2022-012L,2026-07-13T12:55:05.194848,13.10375642,.00018587,87.8813,31.0252,99.9649,260.1688,0,U,51632,999,21276,.17911973E-2,.638E-5,0
ONEWEB-0436,2022-012M,2026-07-13T11:40:00.812064,13.17647621,.00019206,87.9150,0.6151,99.1228,261.0121,0,U,51633,999,21714,.65106354E-4,.38E-6,0
ONEWEB-0438,2022-012N,2026-07-13T14:23:01.371552,13.10378237,.00018552,87.8814,31.0170,78.8814,281.2522,0,U,51634,999,21280,.11286043E-2,.407E-5,0
ONEWEB-0439,2022-012P,2026-07-13T14:27:55.725120,13.10376216,.0001703,87.8816,31.0027,83.9578,276.1743,0,U,51635,999,21278,.12568245E-2,.451E-5,0
ONEWEB-0442,2022-012Q,2026-07-13T11:29:06.099648,13.17651191,.00018024,87.9142,0.6471,73.1352,286.9977,0,U,51636,999,21713,.50899119E-4,.33E-6,0
ONEWEB-0443,2022-012R,2026-07-13T11:57:01.289376,13.17648248,.00014907,87.9141,0.6443,94.0892,266.0410,0,U,51637,999,21718,-.41697987E-3,-.149E-5,0
ONEWEB-0444,2022-012S,2026-07-13T12:23:17.421504,13.10378390,.00016001,87.8820,31.0193,88.4665,271.6646,0,U,51638,999,21278,-.19623492E-3,-.56E-6,0
ONEWEB-0445,2022-012T,2026-07-13T14:42:34.979904,13.10376217,.00019199,87.8824,30.9899,85.7714,274.3632,0,U,51639,999,21280,.17592023E-2,.627E-5,0
ONEWEB-0446,2022-012U,2026-07-13T12:20:49.820928,13.10386160,.00022915,87.8814,31.0362,88.9531,271.1859,0,U,51640,999,21277,-.6370867E-2,-.2211E-4,0
ONEWEB-0448,2022-012V,2026-07-13T14:18:08.124768,13.10378706,.00017798,87.8816,31.0165,86.6193,273.5138,0,U,51641,999,21275,.4420269E-3,.167E-5,0
ONEWEB-0449,2022-012W,2026-07-13T14:25:28.019136,13.10375932,.00019177,87.8821,31.0024,68.1266,292.0065,0,U,51642,999,21276,.12821273E-2,.46E-5,0
ONEWEB-0451,2022-012X,2026-07-13T11:35:09.395232,13.17651064,.00017265,87.9155,0.6141,85.8577,274.2752,0,U,51643,999,21712,.8911262E-5,.16E-6,0
ONEWEB-0452,2022-012Y,2026-07-13T11:32:43.428480,13.17647960,.00015821,87.9142,0.6485,88.9167,271.2146,0,U,51644,999,21713,.17752777E-3,.82E-6,0
ONEWEB-0456,2022-012AA,2026-07-13T12:47:43.059264,13.10372852,.00017612,87.8827,31.0047,91.4542,268.6787,0,U,51646,999,21279,.19812855E-2,.704E-5,0
ONEWEB-0457,2022-012AB,2026-07-13T12:15:45.308448,13.10378921,.00021062,87.8817,31.0251,78.1122,282.0242,0,U,51647,999,21279,-.7643885E-3,-.254E-5,0
ONEWEB-0458,2022-012AC,2026-07-13T14:36:28.416672,13.10373723,.00016162,87.8818,30.9937,85.6094,274.5218,0,U,51648,999,21276,.17974013E-2,.64E-5,0
ONEWEB-0461,2022-012AD,2026-07-13T12:04:19.362432,13.17650184,.00019656,87.9151,0.6238,90.0439,270.0918,0,U,51649,999,21735,.17169037E-3,.8E-6,0
ONEWEB-0463,2022-012AE,2026-07-13T11:37:35.590080,13.17650485,.00020988,87.9159,0.6500,90.2757,269.8615,0,U,51650,999,21713,-.35645563E-4,-.1E-7,0
ONEWEB-0464,2022-012AF,2026-07-13T14:32:48.812928,13.10373894,.00016062,87.8816,31.0157,94.0731,266.0580,0,U,51651,999,21278,.14016086E-2,.502E-5,0
ONEWEB-0468,2022-012AG,2026-07-13T14:40:07.243680,13.10371826,.00016816,87.8812,31.0075,93.6778,266.4541,0,U,51652,999,21276,.1641977E-2,.586E-5,0
