ONEWEB-0410             
1 51622U 22012A   26194.49118731  .00000019  00000+0  14731-4 0  9998
2 51622  87.9153   0.6265 0001898  52.2331 307.8972 13.17650554217162
ONEWEB-0411             
1 51623U 22012B   26194.50939171 -.00000343  00000+0 -10177-2 0  9990
2 51623  87.8823  31.0222 0002265  95.7670 264.3716 13.10377606212732
ONEWEB-0415             
1 51624U 22012C   26194.50598829 -.00000451  00000+0 -13270-2 0  9999
2 51624  87.8824  31.0216 0002131  87.5987 272.5385 13.10377464212734
ONEWEB-0416             
1 51625U 22012D   26194.51788448  .00000086  00000+0  20864-3 0  9999
2 51625  87.8815  31.0355 0002193  84.0088 276.1289 13.10377597212775
ONEWEB-0422             
1 51626U 22012E   26194.50130879 -.00000005  00000+0 -46257-4 0  9996
2 51626  87.9150   0.6250 0001824 113.0921 247.0403 13.17651010217271
ONEWEB-0423             
1 51627U 22012F   26194.49456375 -.00000006  00000+0 -49261-4 0  9996
2 51627  87.9142   0.6299 0001793  90.3896 269.7441 13.17648283217168
ONEWEB-0425             
1 51628U 22012G   26194.60443643  .00000581  00000+0  16271-2 0  9993
2 51628  87.8817  31.0018 0001823  74.7463 285.3865 13.10376544212782
ONEWEB-0428             
1 51629U 22012H   26194.50768859 -.00000421  00000+0 -12410-2 0  9998
2 51629  87.8816  31.0288 0001851  88.1230 272.0110 13.10377426212734
ONEWEB-0431             
1 51630U 22012J   26194.55335768  .00000129  00000+0  33306-3 0  9995
2 51630  87.8815  31.0123 0002317  98.0379 262.1012 13.10369466212797
ONEWEB-0434             
1 51631U 22012K   26194.53161290  .00000624  00000+0  17516-2 0  9995
2 51631  87.8821  31.0421 0001603  66.6763 293.4533 13.10375109212775
ONEWEB-0435             
1 51632U 22012L   26194.53825457  .00000638  00000+0  17912-2 0  9993
2 51632  87.8813  31.0252 0001858  99.9649 260.1688 13.10375642212766
ONEWEB-0436             
1 51633U 22012M   26194.48612051  .00000038  00000+0  65106-4 0  9996
2 51633  87.9150   0.6151 0001920  99.1228 261.0121 13.17647621217142
ONEWEB-0438             
1 51634U 22012N   26194.59932143  .00000407  00000+0  11286-2 0  9994
2 51634  87.8814  31.0170 0001855  78.8814 281.2522 13.10378237212804
ONEWEB-0439             
1 51635U 22012P   26194.60272830  .00000451  00000+0  12568-2 0  9990
2 51635  87.8816  31.0027 0001703  83.9578 276.1743 13.10376216212784
ONEWEB-0442             
1 51636U 22012Q   26194.47854282  .00000033  00000+0  50899-4 0  9990
2 51636  87.9142   0.6471 0001802  73.1352 286.9977 13.17651191217131
ONEWEB-0443             
1 51637U 22012R   26194.49793159 -.00000149  00000+0 -41698-3 0  9994
2 51637  87.9141   0.6443 0001490  94.0892 266.0410 13.17648248217189
ONEWEB-0444             
1 51638U 22012S   26194.51617386 -.00000056  00000+0 -19623-3 0  9995
2 51638  87.8820  31.0193 0001600  88.4665 271.6646 13.10378390212786
ONEWEB-0445             
1 51639U 22012T   26194.61290486  .00000627  00000+0  17592-2 0  9999
2 51639  87.8824  30.9899 0001919  85.7714 274.3632 13.10376217212804
ONEWEB-0446             
1 51640U 22012U   26194.51446552 -.00002211  00000+0 -63709-2 0  9991
2 51640  87.8814  31.0362 0002291  88.9531 271.1859 13.10386160212778
ONEWEB-0448             
1 51641U 22012V   26194.59592737  .00000167  00000+0  44203-3 0  9992
2 51641  87.8816  31.0165 0001779  86.6193 273.5138 13.10378706212752
ONEWEB-0449             
1 51642U 22012W   26194.60101874  .00000460  00000+0  12821-2 0  9999
2 51642  87.8821  31.0024 0001917  68.1266 292.0065 13.10375932212767
ONEWEB-0451             
1 51643U 22012X   26194.48274763  .00000016  00000+0  89113-5 0  9992
2 51643  87.9155   0.6141 0001726  85.8577 274.2752 13.17651064217120
ONEWEB-0452             
1 51644U 22012Y   26194.48105820  .00000082  00000+0  17753-3 0  9992
2 51644  87.9142   0.6485 0001582  88.9167 271.2146 13.17647960217132
ONEWEB-0456             
1 51646U 22012AA  26194.53313726  .00000704  00000+0  19813-2 0  9995
2 51646  87.8827  31.0047 0001761  91.4542 268.6787 13.10372852212796
ONEWEB-0457             
1 51647U 22012AB  26194.51094107 -.00000254  00000+0 -76439-3 0  9993
2 51647  87.8817  31.0251 0002106  78.1122 282.0242 13.10378921212792
ONEWEB-0458             
1 51648U 22012AC  26194.60866223  .00000640  00000+0  17974-2 0  9995
2 51648  87.8818  30.9937 0001616  85.6094 274.5218 13.10373723212760
ONEWEB-0461             
1 51649U 22012AD  26194.50300188  .00000080  00000+0  17169-3 0  9993
2 51649  87.9151   0.6238 0001965  90.0439 270.0918 13.17650184217354
ONEWEB-0463             
1 51650U 22012AE  26194.48443970 -.00000001  00000+0 -35646-4 0  9995
2 51650  87.9159   0.6500 0002098  90.2757 269.8615 13.17650485217139
ONEWEB-0464             
1 51651U 22012AF  26194.60612052  .00000502  00000+0  14016-2 0  9999
2 51651  87.8816  31.0157 0001606  94.0731 266.0580 13.10373894212788
ONEWEB-0468             
1 51652U 22012AG  26194.61119495  .00000586  00000+0  16420-2 0  9997
2 51652  87.8812  31.0075 0001681  93.6778 266.4541 13.10371826212765
